DELTA 2 R/B(1)          
1 20453U 90008B   26147.04086079  .00076076  00000+0  63589-3 0  9994
2 20453  35.6024  16.7759 0071170 275.7408  83.5220 15.65437997938387
COSMOS 2058             
1 20465U 90010A   26147.55292763  .00003270  00000+0  18927-3 0  9997
2 20465  82.4674 329.7077 0010751  64.9154 295.3191 15.11871647954153
SL-14 R/B               
1 20466U 90010B   26147.59766147  .00000363  00000+0  40999-4 0  9999
2 20466  82.5028 193.2806 0020813  43.3905 316.8944 14.83631677940185
SL-14 R/B               
1 20511U 90018B   26147.48877514  .00000385  00000+0  45223-4 0  9996
2 20511  82.5199 149.4551 0015950 187.3186 172.7798 14.82200957934250
HST                     
1 20580U 90037B   26147.60498434  .00006860  00000+0  21825-3 0  9992
2 20580  28.4731 221.2197 0001328 279.5597  80.4848 15.30510811785416
SL-16 R/B               
1 20625U 90046B   26147.37695387 -.00000211  00000+0 -84110-4 0  9995
2 20625  70.9967 132.6539 0014678 194.1005 165.9710 14.15019186859524
COSMOS 2084             
1 20663U 90055A   26147.47873817  .00002437  00000+0  17995-3 0  9990
2 20663  62.7909  66.7660 0006021 243.0916 116.9570 15.06015966948185
SL-6 R/B(2)             
1 20666U 90055D   26147.63723628  .00001858  00000+0  14683-3 0  9992
2 20666  62.7829 345.3019 0037321   2.2515 357.8745 15.03920184950064
SL-8 R/B                
1 20775U 90078B   26147.53803577  .00016734  00000+0  47317-3 0  9998
2 20775  82.9021 180.2886 0354331 107.9073 256.1116 14.91572385821046
SL-8 R/B                
1 21088U 91006B   26147.44688591  .00000010  00000+0 -49582-5 0  9994
2 21088  82.9408 111.4629 0022515 170.8893 310.7886 13.77504555774910
OKEAN-3                 
1 21397U 91039A   26147.39852474  .00003911  00000+0  27149-3 0  9995
2 21397  82.5169 260.5378 0015185  64.9542 295.3260 15.05219464876876
COSMOS 2151             
1 21422U 91042A   26147.58577834  .00001286  00000+0  10013-3 0  9998
2 21422  82.4971   7.5631 0013041 146.5773 213.6277 15.00373066875029
SL-14 R/B               
1 21423U 91042B   26147.55851776  .00000403  00000+0  47983-4 0  9993
2 21423  82.4914 146.2413 0016599 347.4020  12.6776 14.81887070864756
ERS-1                   
1 21574U 91050A   26147.59052377  .00000348  00000+0  12584-3 0  9999
2 21574  98.7803 167.7845 0031261 330.1828  29.7577 14.39502659827088
ARIANE 40 R/B           
1 21610U 91050F   26147.59284658  .00000301  00000+0  10258-3 0  9994
2 21610  98.1887 196.8105 0003167 169.8891 190.2364 14.42942730830374
INTERCOSMOS 25          
1 21819U 91086A   26147.56115786  .00000356  00000+0  70228-4 0  9990
2 21819  82.6043 262.2915 1484898 306.9107  40.4663 12.12165499506241
SL-8 R/B                
1 21876U 92008B   26147.64033483  .00000036  00000+0  22115-4 0  9997
2 21876  82.9279 209.0634 0033173 274.1389 249.0706 13.75973230720274
SL-8 R/B                
1 21938U 92020B   26147.63696553  .00000024  00000+0  92768-5 0  9991
2 21938  82.9296  95.1204 0030523  77.7949  95.4242 13.75546941711985
USA 81                  
1 21949U 92023A   26147.52749926  .00000180  00000+0  59174-4 0  9993
2 21949  85.0072  85.9297 0002530 102.6895 257.4580 14.32391488106078
COSMOS 2219             
1 22219U 92076A   26147.60594194 -.00000287  00000+0 -12583-3 0  9998
2 22219  71.0598 213.0970 0015676  77.7685 282.5192 14.14098554729531
SL-16 R/B               
1 22220U 92076B   26147.14319811  .00000275  00000+0  16107-3 0  9991
2 22220  71.0015  23.1125 0013832 327.2165 148.1500 14.16869807732945
COSMOS 2221             
1 22236U 92080A   26147.61173608  .00001430  00000+0  12358-3 0  9995
2 22236  82.5045 203.4758 0012622 288.9512  71.0342 14.96473612792590
SL-16 R/B               
1 22285U 92093B   26147.53631132  .00000298  00000+0  17714-3 0  9997
2 22285  71.0207 198.7435 0005083 211.5027 148.5793 14.15460652724317
COSMOS 2228             
1 22286U 92094A   26147.57471388  .00001908  00000+0  16094-3 0  9997
2 22286  82.5169 161.7861 0018880  41.0229 319.2409 14.97502109787868
SL-16 R/B               
1 22566U 93016B   26147.16076791 -.00000229  00000+0 -93186-4 0  9992
2 22566  71.0091  50.3701 0011435 214.8816 145.1559 14.15311024713273
COSMOS 2242             
1 22626U 93024A   26147.59170436  .00001639  00000+0  14039-3 0  9999
2 22626  82.5191 191.2458 0017234  44.7463 315.5146 14.96835043792197
SL-16 R/B               
1 22803U 93059B   26147.59809177 -.00000097  00000+0 -24440-4 0  9992
2 22803  70.9899 204.7225 0014787  89.9600 270.3218 14.17244617690713
ARIANE 40 R/B           
1 22830U 93061H   26147.60602164  .00000193  00000+0  86452-4 0  9990
2 22830  98.4824 214.8896 0011627  55.1531 305.0746 14.32897618705407
COSMOS 2278             
1 23087U 94023A   26147.03001195  .00000092  00000+0  72561-4 0  9992
2 23087  71.0540  11.1935 0010783 268.0943  91.8945 14.14384601655880
SL-16 R/B               
1 23088U 94023B   26147.60674438 -.00000290  00000+0 -12529-3 0  9991
2 23088  71.0001 265.1514 0003990 213.8610 146.2258 14.15019732657254
SL-16 R/B               
1 23343U 94074B   26147.59726660  .00000452  00000+0  67015-4 0  9993
2 23343  97.7001 175.1753 0005831 336.7876 138.1483 14.79481928698911
SL-16 R/B               
1 23405U 94077B   26147.55757865  .00000121  00000+0  86257-4 0  9994
2 23405  70.9818 186.5638 0001899 345.4464  14.6604 14.15576031627394
ARIANE 40+ R/B          
1 23561U 95021B   26147.19875892  .00000292  00000+0  10706-3 0  9992
2 23561  98.4415 217.5761 0005505 265.0066 116.2604 14.39820086630548
SL-16 R/B               
1 23705U 95058B   26147.63903334 -.00000149  00000+0 -51659-4 0  9990
2 23705  71.0231  14.5016 0012899 348.7056  11.3776 14.15508687579025
SL-16 R/B               
1 24298U 96051B   26147.63526041  .00000154  00000+0  11023-3 0  9992
2 24298  70.7636   8.1464 0013794   9.2566 350.8805 14.12438569532799
ORBVIEW 2 (SEASTAR)     
1 24883U 97037A   26147.45862284  .00000255  00000+0  10496-3 0  9994
2 24883  98.8671 313.9054 0002369 160.4191 199.7085 14.35540921519775
SL-16 R/B               
1 25400U 98043G   26147.59480264  .00000045  00000+0  37774-4 0  9993
2 25400  98.8355 101.5784 0010461 140.8076 219.3863 14.26064680450238
SL-16 R/B               
1 25407U 98045B   26147.61122379  .00000066  00000+0  57323-4 0  9990
2 25407  71.0123  15.6029 0009599 265.6438  94.3589 14.16199410438271
ISS (ZARYA)             
1 25544U 98067A   26147.55066377  .00011320  00000+0  21012-3 0  9994
2 25544  51.6335  42.2623 0007384 103.8226 256.3584 15.49419138568555
CZ-4B R/B               
1 25732U 99025C   26147.61956227  .00000060  00000+0  49525-4 0  9996
2 25732  98.6497 189.9744 0038161 117.1246 359.3641 14.18279365399353
OKEAN-O                 
1 25860U 99039A   26147.59804028  .00000652  00000+0  92086-4 0  9998
2 25860  97.9327 206.6311 0001959  89.1759 270.9677 14.80438079446064
SL-16 R/B               
1 25861U 99039B   26147.63902333  .00000518  00000+0  72343-4 0  9997
2 25861  97.9849 206.5594 0014834   6.8455 353.2958 14.81821098448552
DELTA 2 R/B             
1 25876U 99041E   26147.57859423  .00000888  00000+0  18065-3 0  9990
2 25876  51.7656 346.1194 0501387 221.1095 135.1031 14.11973681374179
HELIOS 1B               
1 25977U 99064A   26147.60127259  .00001475  00000+0  16731-3 0  9997
2 25977  98.1633  52.1443 0001965 118.0738 242.0677 14.87941769696993
TERRA                   
1 25994U 99068A   26147.62848306  .00000438  00000+0  98188-4 0  9990
2 25994  97.9468 197.9886 0001024 322.8501 197.2711 14.61084085406601
SL-16 R/B               
1 26070U 00006B   26147.64714062  .00000284  00000+0  16861-3 0  9999
2 26070  71.0028 291.8131 0014730  57.6197 302.6350 14.15834445359735
TITAN 4B R/B            
1 26474U 00047B   26147.59429314  .00002861  00000+0  17964-3 0  9997
2 26474  67.9874 178.5327 0045009 308.3270  51.3836 15.10063873404828
ENVISAT                 
1 27386U 02009A   26147.46948572  .00000101  00000+0  46438-4 0  9992
2 27386  98.3826  99.2514 0001271  91.9377  19.8724 14.39059202270501
IDEFIX & ARIANE 42P R/B 
1 27422U 02021B   26147.43403089  .00000242  00000+0  10847-3 0  9993
2 27422  98.5939  85.1427 0011103 320.9931  39.0450 14.31070731255282
AQUA                    
1 27424U 02022A   26147.59148817  .00000860  00000+0  18088-3 0  9999
2 27424  98.4267 116.4650 0001842  62.6103 352.5865 14.62121017280260
CZ-4B R/B               
1 27432U 02024C   26147.59838604  .00000038  00000+0  42187-4 0  9995
2 27432  98.8712 200.5506 0050623 157.7910 324.3995 14.14560564240398
MIDORI II (ADEOS-II)    
1 27597U 02056A   26147.48750954  .00000282  00000+0  12852-3 0  9997
2 27597  98.7867 106.5730 0002057 105.0645 255.0764 14.29336269221553
H-2A R/B                
1 27601U 02056E   26147.50461759  .00000240  00000+0  99095-4 0  9997
2 27601  98.3303 104.9341 0068962 287.2538 182.0518 14.33811347225405
CZ-4B R/B               
1 28059U 03049C   26147.60206212  .00000385  00000+0  99710-4 0  9994
2 28059  98.6894 145.6300 0047958 352.3821   7.6641 14.55083559198070
CZ-2C R/B               
1 28222U 04012C   26147.15630947  .00082497  00000+0  55666-3 0  9998
2 28222  97.7099 220.4401 0009194  21.8422 338.3232 15.74797124216587
SL-16 R/B               
1 28353U 04021B   26147.51342127  .00000142  00000+0  98410-4 0  9995
2 28353  71.0022  67.0747 0007301 277.0991  82.9301 14.14612238133981
CZ-4B R/B               
1 28415U 04035C   26147.60276725  .00009468  00000+0  32077-3 0  9995
2 28415  97.3384 180.9123 0032402  50.8826 309.5288 15.30266569191975
CZ-2C R/B               
1 28480U 04046B   26147.64734140  .00000113  00000+0  57843-4 0  9990
2 28480  98.1960  57.7095 0138130 281.5233  77.0467 14.27020823119764
ARIANE 5 R/B            
1 28499U 04049H   26147.45043306  .00001017  00000+0  11753-3 0  9992
2 28499  98.2708 318.9048 0085249  95.7959 265.2981 14.85412127157486
